STARLINK-35729          
1 66837U 25280S   25344.75002315 -.01661686  00000+0 -71396-2 0  9991
2 66837  69.9927 204.5159 0003820 266.7119 307.1782 15.87561134  2589
STARLINK-35886          
1 66838U 25280T   25344.75002315 -.01671531  00000+0 -71577-2 0  9993
2 66838  69.9926 204.5117 0003690 267.7878 309.5468 15.87648363  2588
STARLINK-35717          
1 66839U 25280U   25344.75002315 -.01660629  00000+0 -71206-2 0  9999
2 66839  69.9927 204.5137 0003768 269.5917 305.9288 15.87600798  2582
STARLINK-35837          
1 66840U 25280V   25344.75002315 -.01676267  00000+0 -71656-2 0  9995
2 66840  69.9929 204.5098 0003714 268.0290 311.0661 15.87691104  2585
STARLINK-35715          
1 66841U 25280W   25344.75002315 -.01680956  00000+0 -71733-2 0  9992
2 66841  69.9927 204.5074 0003766 268.1486 312.7726 15.87733027  2584
STARLINK-35769          
1 66842U 25280X   25344.75002315 -.01683694  00000+0 -71714-2 0  9994
2 66842  69.9928 204.5056 0003711 269.4344 313.1315 15.87776553  2583
STARLINK-35997          
1 66843U 25280Y   25344.75002315 -.01694070  00000+0 -71908-2 0  9990
2 66843  69.9924 204.5010 0003730 268.9655 317.1531 15.87863546  2583
STARLINK-36073          
1 66844U 25280Z   25344.75002315 -.01691191  00000+0 -71928-2 0  9994
2 66844  69.9926 204.5030 0003729 269.5704 314.9537 15.87818843  2589
STARLINK-36068          
1 66845U 25280AA  25344.75002315 -.01705839  00000+0 -72002-2 0  9994
2 66845  69.9924 204.4949 0003800 268.3551 322.8945 15.87995314  2583
STARLINK-36055          
1 66846U 25280AB  25344.75002315 -.01701487  00000+0 -72117-2 0  9997
2 66846  69.9925 204.4985 0003748 269.1010 319.0072 15.87905661  2580
STARLINK-36061          
1 66847U 25280AC  25344.75002315 -.01703472  00000+0 -72049-2 0  9998
2 66847  69.9924 204.4971 0003761 269.5352 320.0966 15.87951104  2535
STARLINK-36091          
1 66848U 25281A   25344.66668981 -.00965288  29244-3 -23664-2 0  9995
2 66848  43.0014 135.3114 0001692 280.9350 204.3448 15.95185766  2469
