CCSDS_OMM_VERS = 2.0
CREATION_DATE  = 
ORIGINATOR     = 

OBJECT_NAME    = STARLINK-35729
OBJECT_ID      = 2025-280S
CENTER_NAME    = EARTH
REF_FRAME      = TEME
TIME_SYSTEM    = UTC
MEAN_ELEMENT_THEORY = SGP/SGP4

EPOCH          = 2025-12-10T18:00:02.000160
MEAN_MOTION    = 15.87561134
ECCENTRICITY   = .000382
INCLINATION    = 69.9927
RA_OF_ASC_NODE = 204.5159
ARG_OF_PERICENTER = 266.7119
MEAN_ANOMALY   = 307.1782

EPHEMERIS_TYPE = 0
CLASSIFICATION_TYPE = U
NORAD_CAT_ID   = 66837
ELEMENT_SET_NO = 999
REV_AT_EPOCH   = 258
BSTAR          = -.71396E-2
MEAN_MOTION_DOT = -.1661686E-1
MEAN_MOTION_DDOT = 0

CCSDS_OMM_VERS = 2.0
CREATION_DATE  = 
ORIGINATOR     = 

OBJECT_NAME    = STARLINK-35886
OBJECT_ID      = 2025-280T
CENTER_NAME    = EARTH
REF_FRAME      = TEME
TIME_SYSTEM    = UTC
MEAN_ELEMENT_THEORY = SGP/SGP4

EPOCH          = 2025-12-10T18:00:02.000160
MEAN_MOTION    = 15.87648363
ECCENTRICITY   = .000369
INCLINATION    = 69.9926
RA_OF_ASC_NODE = 204.5117
ARG_OF_PERICENTER = 267.7878
MEAN_ANOMALY   = 309.5468

EPHEMERIS_TYPE = 0
CLASSIFICATION_TYPE = U
NORAD_CAT_ID   = 66838
ELEMENT_SET_NO = 999
REV_AT_EPOCH   = 258
BSTAR          = -.71577E-2
MEAN_MOTION_DOT = -.1671531E-1
MEAN_MOTION_DDOT = 0

CCSDS_OMM_VERS = 2.0
CREATION_DATE  = 
ORIGINATOR     = 

OBJECT_NAME    = STARLINK-35717
OBJECT_ID      = 2025-280U
CENTER_NAME    = EARTH
REF_FRAME      = TEME
TIME_SYSTEM    = UTC
MEAN_ELEMENT_THEORY = SGP/SGP4

EPOCH          = 2025-12-10T18:00:02.000160
MEAN_MOTION    = 15.87600798
ECCENTRICITY   = .0003768
INCLINATION    = 69.9927
RA_OF_ASC_NODE = 204.5137
ARG_OF_PERICENTER = 269.5917
MEAN_ANOMALY   = 305.9288

EPHEMERIS_TYPE = 0
CLASSIFICATION_TYPE = U
NORAD_CAT_ID   = 66839
ELEMENT_SET_NO = 999
REV_AT_EPOCH   = 258
BSTAR          = -.71206E-2
MEAN_MOTION_DOT = -.1660629E-1
MEAN_MOTION_DDOT = 0

CCSDS_OMM_VERS = 2.0
CREATION_DATE  = 
ORIGINATOR     = 

OBJECT_NAME    = STARLINK-35837
OBJECT_ID      = 2025-280V
CENTER_NAME    = EARTH
REF_FRAME      = TEME
TIME_SYSTEM    = UTC
MEAN_ELEMENT_THEORY = SGP/SGP4

EPOCH          = 2025-12-10T18:00:02.000160
MEAN_MOTION    = 15.87691104
ECCENTRICITY   = .0003714
INCLINATION    = 69.9929
RA_OF_ASC_NODE = 204.5098
ARG_OF_PERICENTER = 268.0290
MEAN_ANOMALY   = 311.0661

EPHEMERIS_TYPE = 0
CLASSIFICATION_TYPE = U
NORAD_CAT_ID   = 66840
ELEMENT_SET_NO = 999
REV_AT_EPOCH   = 258
BSTAR          = -.71656E-2
MEAN_MOTION_DOT = -.1676267E-1
MEAN_MOTION_DDOT = 0

CCSDS_OMM_VERS = 2.0
CREATION_DATE  = 
ORIGINATOR     = 

OBJECT_NAME    = STARLINK-35715
OBJECT_ID      = 2025-280W
CENTER_NAME    = EARTH
REF_FRAME      = TEME
TIME_SYSTEM    = UTC
MEAN_ELEMENT_THEORY = SGP/SGP4

EPOCH          = 2025-12-10T18:00:02.000160
MEAN_MOTION    = 15.87733027
ECCENTRICITY   = .0003766
INCLINATION    = 69.9927
RA_OF_ASC_NODE = 204.5074
ARG_OF_PERICENTER = 268.1486
MEAN_ANOMALY   = 312.7726

EPHEMERIS_TYPE = 0
CLASSIFICATION_TYPE = U
NORAD_CAT_ID   = 66841
ELEMENT_SET_NO = 999
REV_AT_EPOCH   = 258
BSTAR          = -.71733E-2
MEAN_MOTION_DOT = -.1680956E-1
MEAN_MOTION_DDOT = 0

CCSDS_OMM_VERS = 2.0
CREATION_DATE  = 
ORIGINATOR     = 

OBJECT_NAME    = STARLINK-35769
OBJECT_ID      = 2025-280X
CENTER_NAME    = EARTH
REF_FRAME      = TEME
TIME_SYSTEM    = UTC
MEAN_ELEMENT_THEORY = SGP/SGP4

EPOCH          = 2025-12-10T18:00:02.000160
MEAN_MOTION    = 15.87776553
ECCENTRICITY   = .0003711
INCLINATION    = 69.9928
RA_OF_ASC_NODE = 204.5056
ARG_OF_PERICENTER = 269.4344
MEAN_ANOMALY   = 313.1315

EPHEMERIS_TYPE = 0
CLASSIFICATION_TYPE = U
NORAD_CAT_ID   = 66842
ELEMENT_SET_NO = 999
REV_AT_EPOCH   = 258
BSTAR          = -.71714E-2
MEAN_MOTION_DOT = -.1683694E-1
MEAN_MOTION_DDOT = 0

CCSDS_OMM_VERS = 2.0
CREATION_DATE  = 
ORIGINATOR     = 

OBJECT_NAME    = STARLINK-35997
OBJECT_ID      = 2025-280Y
CENTER_NAME    = EARTH
REF_FRAME      = TEME
TIME_SYSTEM    = UTC
MEAN_ELEMENT_THEORY = SGP/SGP4

EPOCH          = 2025-12-10T18:00:02.000160
MEAN_MOTION    = 15.87863546
ECCENTRICITY   = .000373
INCLINATION    = 69.9924
RA_OF_ASC_NODE = 204.5010
ARG_OF_PERICENTER = 268.9655
MEAN_ANOMALY   = 317.1531

EPHEMERIS_TYPE = 0
CLASSIFICATION_TYPE = U
NORAD_CAT_ID   = 66843
ELEMENT_SET_NO = 999
REV_AT_EPOCH   = 258
BSTAR          = -.71908E-2
MEAN_MOTION_DOT = -.169407E-1
MEAN_MOTION_DDOT = 0

CCSDS_OMM_VERS = 2.0
CREATION_DATE  = 
ORIGINATOR     = 

OBJECT_NAME    = STARLINK-36073
OBJECT_ID      = 2025-280Z
CENTER_NAME    = EARTH
REF_FRAME      = TEME
TIME_SYSTEM    = UTC
MEAN_ELEMENT_THEORY = SGP/SGP4

EPOCH          = 2025-12-10T18:00:02.000160
MEAN_MOTION    = 15.87818843
ECCENTRICITY   = .0003729
INCLINATION    = 69.9926
RA_OF_ASC_NODE = 204.5030
ARG_OF_PERICENTER = 269.5704
MEAN_ANOMALY   = 314.9537

EPHEMERIS_TYPE = 0
CLASSIFICATION_TYPE = U
NORAD_CAT_ID   = 66844
ELEMENT_SET_NO = 999
REV_AT_EPOCH   = 258
BSTAR          = -.71928E-2
MEAN_MOTION_DOT = -.1691191E-1
MEAN_MOTION_DDOT = 0

CCSDS_OMM_VERS = 2.0
CREATION_DATE  = 
ORIGINATOR     = 

OBJECT_NAME    = STARLINK-36068
OBJECT_ID      = 2025-280AA
CENTER_NAME    = EARTH
REF_FRAME      = TEME
TIME_SYSTEM    = UTC
MEAN_ELEMENT_THEORY = SGP/SGP4

EPOCH          = 2025-12-10T18:00:02.000160
MEAN_MOTION    = 15.87995314
ECCENTRICITY   = .00038
INCLINATION    = 69.9924
RA_OF_ASC_NODE = 204.4949
ARG_OF_PERICENTER = 268.3551
MEAN_ANOMALY   = 322.8945

EPHEMERIS_TYPE = 0
CLASSIFICATION_TYPE = U
NORAD_CAT_ID   = 66845
ELEMENT_SET_NO = 999
REV_AT_EPOCH   = 258
BSTAR          = -.72002E-2
MEAN_MOTION_DOT = -.1705839E-1
MEAN_MOTION_DDOT = 0

CCSDS_OMM_VERS = 2.0
CREATION_DATE  = 
ORIGINATOR     = 

OBJECT_NAME    = STARLINK-36055
OBJECT_ID      = 2025-280AB
CENTER_NAME    = EARTH
REF_FRAME      = TEME
TIME_SYSTEM    = UTC
MEAN_ELEMENT_THEORY = SGP/SGP4

EPOCH          = 2025-12-10T18:00:02.000160
MEAN_MOTION    = 15.87905661
ECCENTRICITY   = .0003748
INCLINATION    = 69.9925
RA_OF_ASC_NODE = 204.4985
ARG_OF_PERICENTER = 269.1010
MEAN_ANOMALY   = 319.0072

EPHEMERIS_TYPE = 0
CLASSIFICATION_TYPE = U
NORAD_CAT_ID   = 66846
ELEMENT_SET_NO = 999
REV_AT_EPOCH   = 258
BSTAR          = -.72117E-2
MEAN_MOTION_DOT = -.1701487E-1
MEAN_MOTION_DDOT = 0

CCSDS_OMM_VERS = 2.0
CREATION_DATE  = 
ORIGINATOR     = 

OBJECT_NAME    = STARLINK-36061
OBJECT_ID      = 2025-280AC
CENTER_NAME    = EARTH
REF_FRAME      = TEME
TIME_SYSTEM    = UTC
MEAN_ELEMENT_THEORY = SGP/SGP4

EPOCH          = 2025-12-10T18:00:02.000160
MEAN_MOTION    = 15.87951104
ECCENTRICITY   = .0003761
INCLINATION    = 69.9924
RA_OF_ASC_NODE = 204.4971
ARG_OF_PERICENTER = 269.5352
MEAN_ANOMALY   = 320.0966

EPHEMERIS_TYPE = 0
CLASSIFICATION_TYPE = U
NORAD_CAT_ID   = 66847
ELEMENT_SET_NO = 999
REV_AT_EPOCH   = 253
BSTAR          = -.72049E-2
MEAN_MOTION_DOT = -.1703472E-1
MEAN_MOTION_DDOT = 0

CCSDS_OMM_VERS = 2.0
CREATION_DATE  = 
ORIGINATOR     = 

OBJECT_NAME    = STARLINK-36091
OBJECT_ID      = 2025-281A
CENTER_NAME    = EARTH
REF_FRAME      = TEME
TIME_SYSTEM    = UTC
MEAN_ELEMENT_THEORY = SGP/SGP4

EPOCH          = 2025-12-10T16:00:01.999584
MEAN_MOTION    = 15.95185766
ECCENTRICITY   = .00016928
INCLINATION    = 43.0014
RA_OF_ASC_NODE = 135.3114
ARG_OF_PERICENTER = 280.9350
MEAN_ANOMALY   = 204.3448

EPHEMERIS_TYPE = 0
CLASSIFICATION_TYPE = U
NORAD_CAT_ID   = 66848
ELEMENT_SET_NO = 999
REV_AT_EPOCH   = 246
BSTAR          = -.23663686E-2
MEAN_MOTION_DOT = -.965288E-2
MEAN_MOTION_DDOT = .2924381E-3

